#cP2022  3  3  0  0  0.00000000     576 d+D   IGb14 EXT AIUB
## 2199 345600.00000000   300.00000000 59641 0.0000000000000
+   77   G01G02G03G04G05G06G07G08G09G10G11G12G13G14G15G16G17
+        G18G19G20G21G22G23G24G25G26G27G28G29G30G31G32R01R02
+        R03R04R05R07R08R09R11R12R13R14R15R17R18R19R20R21R22
+        R24E01E02E03E04E05E07E08E09E10E11E12E13E14E15E18E19
+        E21E25E26E27E30E31E33E34E36  0  0  0  0  0  0  0  0
++         5  7  6  8  7  6  7  8  6  5  8  7  6  7  7  7  7
++         8  8  7  8  7  7  7  6  7  9  7  7  5  7  6  9  7
++         8  8  8  8  8  6  7  6  7  6  7  8  7  8  9  8  7
++         8  6  6  6  6  7  6  7  6  7  7  7  6  7  6  6  7
++         6  6  7  6  6  7  7  7  6  0  0  0  0  0  0  0  0
%c M  cc GPS ccc cccc cccc cccc cccc ccccc ccccc ccccc ccccc
%c cc cc ccc ccc cccc cccc cccc cccc ccccc ccccc ccccc ccccc
%f  1.2500000  1.025000000  0.00000000000  0.000000000000000
%f  0.0000000  0.000000000  0.00000000000  0.000000000000000
%i    0    0    0    0      0      0      0      0         0
%i    0    0    0    0      0      0      0      0         0
/* Center for Orbit Determination in Europe (CODE)          
/* Ultra-rapid GRE orbits starting year-day 22062 00 hour   
/* Observed/predicted: 24/24 hours (data used up to 062X)   
/* PCV:IGS14      OL/AL:FES2014b NONE     YN ORB:CoN CLK:BRD
*  2022  3  4  8 55  0.00000000
PG01 -13085.710340  15315.374850  16839.052274    417.251246               P   P
PG02  14032.289987   7429.554512 -20611.503625   -651.799131               P   P
PG03 -22521.813380  13248.969497  -4524.694681   -147.880706               P   P
PG04 -15031.490636   6681.490462 -20863.896770   -185.952483               P   P
PG05  24146.370955  -3277.665741 -10908.360432    -73.457666               P   P
PG06   6178.277550  22188.689359 -13088.931880    220.015564               P   P
PG07  -5328.915273  25480.201503  -3301.883765    314.088956               P   P
PG08 -21724.553761  -2307.802642  15319.828713    -58.486277               P   P
PG09  -4162.286262  15476.577061 -21243.149776   -351.519549               P   P
PG10  -2440.990659 -15162.821393  21783.494003   -336.793810               P   P
PG11  13355.171093   9150.531183 -21062.551889    -71.931386               P   P
PG12  24439.334807 -10081.393951  -1896.754800   -179.696705               P   P
PG13  21787.453176  11334.441820  10167.141786    271.154283               P   P
PG14    920.136270  15864.228961  21266.052867    -90.339600               P   P
PG15  21790.635297   -633.105618  14978.742459    -79.421112               P   P
PG16 -22894.215198  -2391.598111 -13917.761639   -476.596313               P   P
PG17   9974.039508  20529.970175  13974.117172    582.745188               P   P
PG18   5872.116016 -25583.523931  -3677.216527    227.610766               P   P
PG19  16038.808646  20292.316459   6193.094898    126.510005               P   P
PG20  19092.199053   3387.105262 -18044.027727    516.453594               P   P
PG21 -15410.114968   4230.628683  21797.649827    158.924131               P   P
PG22 -17808.210878 -19457.297208   4278.890953    222.277049               P   P
PG23   9778.463560 -17698.553063  17162.060393     -3.846944               P   P
PG24  14310.216214 -11325.054706  18863.464031    270.869646               P   P
PG25  16049.417378 -16941.013094 -12701.979994    293.586971               P   P
PG26 -13952.595327  -9814.643031 -20508.341454    188.016824               P   P
PG27 -23136.433566 -12028.566159   5857.846110    141.921624               P   P
PG28   9520.944395  12637.497918  21821.902982    387.961784               P   P
PG29   7080.931772 -13238.719230 -21952.973015   -487.236673               P   P
PG30    296.796057  25977.001115   4917.545406   -516.781721               P   P
PG31  -8030.580692 -20200.465778 -15059.810114   -167.369806               P   P
PG32 -14497.979403 -19728.463652  10663.502687    -78.246216               P   P
PR01 -24423.777469   -256.095312  -7329.564313      7.165596               P   P
PR02 -10690.270782   8332.021002 -21577.730107    511.443652               P   P
PR03   8405.919371  11643.433727 -21019.632907     52.490082               P   P
PR04  22457.077878   8302.253885  -8753.469415    130.333600               P   P
PR05  24082.387769    523.871267   8369.825228     88.746637               P   P
PR07  -9209.416812 -11680.352272  20777.287174     32.305160               P   P
PR08 -22513.748668  -8299.147839   8753.580365    -63.832884               P   P
PR09  14639.736396 -20662.343363  -3354.914780     42.572779               P   P
PR11 -10010.827953  -4915.200306 -22934.146087     44.379391               P   P
PR12 -18146.426181  11432.691024 -13807.621801     17.333161               P   P
PR13 -15250.537107  20331.158003   2186.924529    -19.011783               P   P
PR14  -2899.685010  17444.167769  18383.219448     75.014818               P   P
PR15  10569.650599   4426.667755  22801.438872     97.831704               P   P
PR17   7136.231029  24310.510768   3106.971093    506.702804               P   P
PR18  12483.231002  17767.876165 -13318.383649    109.188587               P   P
PR19  11535.553725   3376.458585 -22495.678809   -180.308582               P   P
PR20   3395.982173 -16903.025651 -18810.530652    -66.039176               P   P
PR21  -7704.381542 -24252.689685  -1623.227043   -282.581060               P   P
PR22 -12494.749435 -17293.745567  14051.543671   -168.360033               P   P
PR24  -3015.298363  17584.812231  18252.225872     82.804226               P   P
PE01  -1972.030091 -17609.410080 -23712.785570   -590.181673               P   P
PE02   2101.546374  17551.583022  23738.167716    284.012175               P   P
PE03  13557.915860  20601.096885 -16376.109022   -533.783579               P   P
PE04 -26187.135112 -13784.211069   -713.421342   -977.128287               P   P
PE05  -7302.967144  15436.219128 -24174.156973   -203.608172               P   P
PE07  23614.541319  -1371.473671  17805.314749   -644.888103               P   P
PE08  26353.867448  13442.036549   1111.869549   -489.353353               P   P
PE09 -23421.779540   1552.046895 -18022.931578   5340.367965               P   P
PE10 -16052.901296  -3064.708807  24676.933776   -498.547264               P   P
PE11 -15182.333443   9077.193920  23725.083029   4315.641278               P   P
PE12 -14449.573562 -14199.278401  21593.305059   4730.678945               P   P
PE13  15222.270420  -8386.229766 -23955.724286    427.013916               P   P
PE14  21937.217187  19650.527761   1301.635249  -1766.074154               P   P
PE15  14375.327433  14291.392514 -21556.498804    759.850463               P   P
PE18 -10855.578799 -22328.277064 -11890.726855  -1724.586741               P   P
PE19 -11211.660103 -20567.103976  18106.460012   -742.367311               P   P
PE21  16499.578032 -20608.676777 -13383.963583   -720.532747               P   P
PE25 -16734.677975  20572.957507  13160.233038   -565.600902               P   P
PE26   6708.467903 -26508.371294 -11333.109904   -872.503713               P   P
PE27  26578.489693 -11914.607799   5222.787984   -245.380063               P   P
PE30  20200.335044   4704.363877  21095.808840   -320.784055               P   P
PE31 -20942.081547  -3704.720140 -20591.070119   -493.025817               P   P
PE33  -5061.996525 -28447.199520   6468.959137   -458.892420               P   P
PE34   5233.747736  28362.857161  -6660.888622   -504.915758               P   P
PE36  -7134.776463  25964.762964  12283.457075   -340.449377               P   P
EOF
